NORAD_CAT_ID,OBJECT_NAME,OBJECT_TYPE,EPOCH,MEAN_MOTION,ECCENTRICITY,INCLINATION,RA_OF_ASC_NODE,ARG_OF_PERICENTER,MEAN_ANOMALY,BSTAR,MEAN_MOTION_DOT,MEAN_MOTION_DDOT,TLE_LINE0,TLE_LINE1,TLE_LINE2,SEMIMAJOR_AXIS,PERIOD,APOGEE,PERIGEE,DECAYED
53169.0,STARLINK-4117,PAYLOAD,2024-03-27 04:54:12,15.08827359,0.0001404,53.2155,107.8508,84.8771,275.2381,0.00027373,4.07e-05,0.0,0 STARLINK-4117,1 53169U 22083AP  24087.20431607  .00004070  00000-0  27373-3 0  9999,2 53169  53.2155 107.8508 0001404  84.8771 275.2381 15.08827359 94638,6917.919,95.438,540.755,538.813,0.0
53169.0,STARLINK-4117,PAYLOAD,2024-03-27 08:04:57,15.08854455,0.0001416,53.2169,107.2525,92.3943,267.7212,0.00048434,7.432e-05,0.0,0 STARLINK-4117,1 53169U 22083AP  24087.33677548  .00007432  00000-0  48434-3 0  9995,2 53169  53.2169 107.2525 0001416  92.3943 267.7212 15.08854455 94652,6917.836,95.437,540.681,538.722,0.0
53169.0,STARLINK-4117,PAYLOAD,2024-03-28 04:45:00,15.08833967,0.0001373,53.2175,103.3915,95.1759,264.939,0.00024738,3.651e-05,0.0,0 STARLINK-4117,1 53169U 22083AP  24088.19791808  .00003651  00000-0  24738-3 0  9996,2 53169  53.2175 103.3915 0001373  95.1759 264.9390 15.08833967 94782,6917.899,95.438,540.714,538.814,0.0
53169.0,STARLINK-4117,PAYLOAD,2024-03-28 11:06:33,15.08830932,0.0001445,53.2171,102.1988,87.3706,272.7452,0.00016995,2.417e-05,0.0,0 STARLINK-4117,1 53169U 22083AP  24088.46288491  .00002417  00000-0  16995-3 0  9990,2 53169  53.2171 102.1988 0001445  87.3706 272.7452 15.08830932 94820,6917.908,95.438,540.773,538.773,0.0
53169.0,STARLINK-4117,PAYLOAD,2024-03-28 17:28:06,15.0882237,0.0001515,53.2176,101.0096,92.4401,267.6765,0.00035318,5.335e-05,0.0,0 STARLINK-4117,1 53169U 22083AP  24088.72784737  .00005335  00000-0  35318-3 0  9995,2 53169  53.2176 101.0096 0001515  92.4401 267.6765 15.08822370 94221,6917.934,95.439,540.847,538.751,0.0
53169.0,STARLINK-4117,PAYLOAD,2024-03-29 04:35:46,15.08857329,0.000148,53.2176,98.9294,95.0684,265.0477,-0.00013044,-2.364e-05,0.0,0 STARLINK-4117,1 53169U 22083AP  24089.19151456 -.00002364  00000-0 -13044-3 0  9996,2 53169  53.2176  98.9294 0001480  95.0684 265.0477 15.08857329 94930,6917.827,95.436,540.716,538.669,0.0
53169.0,STARLINK-4117,PAYLOAD,2024-03-29 07:46:32,15.0885996,0.0001509,53.2169,98.3359,96.9319,263.1845,-8.8981e-05,-1.705e-05,0.0,0 STARLINK-4117,1 53169U 22083AP  24089.32398979 -.00001705  00000-0 -88981-4 0  9995,2 53169  53.2169  98.3359 0001509  96.9319 263.1845 15.08859960 94318,6917.819,95.436,540.728,538.64,0.0
53169.0,STARLINK-4117,PAYLOAD,2024-03-30 04:26:32,15.08857747,0.0001674,53.2172,94.4696,98.4952,261.623,0.00027882,4.154e-05,0.0,0 STARLINK-4117,1 53169U 22083AP  24090.18509619  .00004154  00000-0  27882-3 0  9997,2 53169  53.2172  94.4696 0001674  98.4952 261.6230 15.08857747 95083,6917.826,95.436,540.849,538.533,0.0
53169.0,STARLINK-4117,PAYLOAD,2024-03-30 09:12:43,15.08826559,0.0001422,53.2168,93.5781,90.1591,269.9564,1.5145e-05,-4.7e-07,0.0,0 STARLINK-4117,1 53169U 22083AP  24090.38384126 -.00000047  00000-0  15145-4 0  9991,2 53169  53.2168  93.5781 0001422  90.1591 269.9564 15.08826559 95114,6917.921,95.438,540.77,538.803,0.0
53169.0,STARLINK-4117,PAYLOAD,2024-03-30 17:09:38,15.08830277,0.0001324,53.216,92.0911,92.5267,267.5876,-0.00012833,-2.329e-05,0.0,0 STARLINK-4117,1 53169U 22083AP  24090.71503115 -.00002329  00000-0 -12833-3 0  9995,2 53169  53.2160  92.0911 0001324  92.5267 267.5876 15.08830277 95169,6917.91,95.438,540.691,538.859,0.0
53169.0,STARLINK-4117,PAYLOAD,2024-03-31 09:03:29,15.08847201,0.0001412,53.2165,89.1159,93.0105,267.1048,0.00012091,1.637e-05,0.0,0 STARLINK-4117,1 53169U 22083AP  24091.37742609  .00001637  00000-0  12091-3 0  9996,2 53169  53.2165  89.1159 0001412  93.0105 267.1048 15.08847201 95263,6917.858,95.437,540.7,538.747,0.0
53169.0,STARLINK-4117,PAYLOAD,2024-03-31 17:00:25,15.08836473,0.0001263,53.216,87.6311,90.585,269.5286,9.2767e-05,1.189e-05,0.0,0 STARLINK-4117,1 53169U 22083AP  24091.70863105  .00001189  00000-0  92767-4 0  9999,2 53169  53.2160  87.6311 0001263  90.5850 269.5286 15.08836473 95319,6917.891,95.438,540.63,538.882,0.0
53169.0,STARLINK-4117,PAYLOAD,2024-04-01 05:43:31,15.08830685,0.0001226,53.2157,85.2521,90.8562,269.257,0.00026823,3.983e-05,0.0,0 STARLINK-4117,1 53169U 22083AP  24092.23855952  .00003983  00000-0  26823-3 0  9992,2 53169  53.2157  85.2521 0001226  90.8562 269.2570 15.08830685 95394,6917.909,95.438,540.622,538.926,0.0
53169.0,STARLINK-4117,PAYLOAD,2024-04-01 08:54:17,15.08835527,0.00013,53.216,84.6543,96.034,264.08,0.00031672,4.756e-05,0.0,0 STARLINK-4117,1 53169U 22083AP  24092.37103788  .00004756  00000-0  31672-3 0  9997,2 53169  53.2160  84.6543 0001300  96.0340 264.0800 15.08835527 94770,6917.894,95.438,540.658,538.86,0.0
53169.0,STARLINK-4117,PAYLOAD,2024-04-02 05:34:18,15.08844477,0.0001259,53.2155,80.7896,92.9101,267.2035,0.0002814,4.194e-05,0.0,0 STARLINK-4117,1 53169U 22083AP  24093.23215640  .00004194  00000-0  28140-3 0  9996,2 53169  53.2155  80.7896 0001259  92.9101 267.2035 15.08844477 95540,6917.867,95.437,540.603,538.861,0.0
53169.0,STARLINK-4117,PAYLOAD,2024-04-02 16:42:00,15.08845339,0.0001315,53.2168,78.7084,93.6964,266.4179,0.00025013,3.696e-05,0.0,0 STARLINK-4117,1 53169U 22083AP  24093.69583619  .00003696  00000-0  25013-3 0  9992,2 53169  53.2168  78.7084 0001315  93.6964 266.4179 15.08845339 94972,6917.864,95.437,540.639,538.819,0.0
53169.0,STARLINK-4117,PAYLOAD,2024-04-03 02:14:19,15.08840181,0.000137,53.2161,76.9247,93.0016,267.1133,0.00014835,2.074e-05,0.0,0 STARLINK-4117,1 53169U 22083AP  24094.09327877  .00002074  00000-0  14835-3 0  9998,2 53169  53.2161  76.9247 0001370  93.0016 267.1133 15.08840181 95675,6917.88,95.438,540.693,538.797,0.0
53169.0,STARLINK-4117,PAYLOAD,2024-04-03 08:35:51,15.08843988,0.0001391,53.2166,75.735,94.9613,265.1538,0.00014528,2.025e-05,0.0,0 STARLINK-4117,1 53169U 22083AP  24094.35823641  .00002025  00000-0  14528-3 0  9992,2 53169  53.2166  75.7350 0001391  94.9613 265.1538 15.08843988 95077,6917.868,95.437,540.695,538.771,0.0
53169.0,STARLINK-4117,PAYLOAD,2024-04-03 22:54:20,15.08838884,0.0001491,53.2168,73.0578,97.595,262.5212,-1.6584e-06,-3.14e-06,0.0,0 STARLINK-4117,1 53169U 22083AP  24094.95439901 -.00000314  00000-0 -16584-5 0  9997,2 53169  53.2168  73.0578 0001491  97.5950 262.5212 15.08838884 95165,6917.884,95.438,540.78,538.717,0.0
53169.0,STARLINK-4117,PAYLOAD,2024-04-04 05:15:52,15.08838351,0.0001406,53.2168,71.8696,92.5697,267.5457,7.3574e-06,-1.71e-06,0.0,0 STARLINK-4117,1 53169U 22083AP  24095.21936098 -.00000171  00000-0  73574-5 0  9998,2 53169  53.2168  71.8696 0001406  92.5697 267.5457 15.08838351 95841,6917.885,95.438,540.723,538.778,0.0
53169.0,STARLINK-4117,PAYLOAD,2024-04-04 14:48:11,15.08838768,0.0001375,53.2178,70.0863,92.3183,267.7967,4.3717e-06,-2.18e-06,0.0,0 STARLINK-4117,1 53169U 22083AP  24095.61680042 -.00000218  00000-0  43717-5 0  9995,2 53169  53.2178  70.0863 0001375  92.3183 267.7967 15.08838768 95268,6917.884,95.438,540.7,538.798,0.0
53169.0,STARLINK-4117,PAYLOAD,2024-04-05 05:06:39,15.08844875,0.000131,53.2176,67.4097,91.0654,269.0488,0.00011131,1.484e-05,0.0,0 STARLINK-4117,1 53169U 22083AP  24096.21295326  .00001484  00000-0  11131-3 0  9997,2 53169  53.2176  67.4097 0001310  91.0654 269.0488 15.08844875 95992,6917.865,95.437,540.637,538.824,0.0
53169.0,STARLINK-4117,PAYLOAD,2024-04-05 14:38:56,15.08857987,0.0001371,53.2184,65.625,89.7211,270.3938,0.00020429,2.966e-05,0.0,0 STARLINK-4117,1 53169U 22083AP  24096.61038014  .00002966  00000-0  20429-3 0  9996,2 53169  53.2184  65.6250 0001371  89.7211 270.3938 15.08857987 95412,6917.825,95.436,540.639,538.742,0.0
53169.0,STARLINK-4117,PAYLOAD,2024-04-05 21:00:29,15.08858148,0.000134,53.2189,64.4354,89.1158,270.9988,0.00026437,3.924e-05,0.0,0 STARLINK-4117,1 53169U 22083AP  24096.87533669  .00003924  00000-0  26437-3 0  9990,2 53169  53.2189  64.4354 0001340  89.1158 270.9988 15.08858148 96095,6917.825,95.436,540.617,538.763,0.0
53169.0,STARLINK-4117,PAYLOAD,2024-04-06 04:57:26,15.08833883,0.0001445,53.219,62.9489,87.5769,272.5388,4.3658e-05,4.07e-06,0.0,0 STARLINK-4117,1 53169U 22083AP  24097.20655639  .00000407  00000-0  43658-4 0  9998,2 53169  53.2190  62.9489 0001445  87.5769 272.5388 15.08833883 96142,6917.899,95.438,540.764,538.764,0.0
53169.0,STARLINK-4117,PAYLOAD,2024-04-06 14:29:45,15.08831075,0.0001403,53.2178,61.1647,89.0564,271.0588,-0.00018064,-3.161e-05,0.0,0 STARLINK-4117,1 53169U 22083AP  24097.60399321 -.00003161  00000-0 -18064-3 0  9999,2 53169  53.2178  61.1647 0001403  89.0564 271.0588 15.08831075 95561,6917.908,95.438,540.743,538.802,0.0
53169.0,STARLINK-4117,PAYLOAD,2024-04-07 06:23:37,15.08825115,0.0001586,53.2182,58.1925,95.1032,265.0141,-0.0002952,-4.981e-05,0.0,0 STARLINK-4117,1 53169U 22083AP  24098.26640152 -.00004981  00000-0 -29520-3 0  9993,2 53169  53.2182  58.1925 0001586  95.1032 265.0141 15.08825115 96300,6917.926,95.438,540.888,538.694,0.0
53169.0,STARLINK-4117,PAYLOAD,2024-04-07 14:20:32,15.08832759,0.0001593,53.2185,56.7063,93.0199,267.0975,-0.00016219,-2.868e-05,0.0,0 STARLINK-4117,1 53169U 22083AP  24098.59759965 -.00002868  00000-0 -16219-3 0  9995,2 53169  53.2185  56.7063 0001593  93.0199 267.0975 15.08832759 96353,6917.903,95.438,540.87,538.666,0.0
53169.0,STARLINK-4117,PAYLOAD,2024-04-08 04:39:00,15.0884621,0.0001467,53.2179,54.0301,90.1685,269.9476,-2.2187e-05,-6.41e-06,0.0,0 STARLINK-4117,1 53169U 22083AP  24099.19375603 -.00000641  00000-0 -22187-4 0  9994,2 53169  53.2179  54.0301 0001467  90.1685 269.9476 15.08846210 96444,6917.861,95.437,540.741,538.712,0.0
53169.0,STARLINK-4117,PAYLOAD,2024-04-08 14:11:20,15.08839613,0.0001546,53.218,52.2437,90.4674,269.6495,0.00048917,7.506e-05,0.0,0 STARLINK-4117,1 53169U 22083AP  24099.59120516  .00007506  00000-0  48917-3 0  9992,2 53169  53.2180  52.2437 0001546  90.4674 269.6495 15.08839613 95867,6917.882,95.438,540.816,538.677,0.0
